start=new Date('2023-04-04T00:00:00.000Z').valueOf();
sats=[{"SEMIMAJOR_AXIS":"6925.282","TLE_LINE2":"2 48666  53.0505 239.9607 0001108  76.1479 283.9633 15.06421705102413","OBJECT_TYPE":"PAYLOAD","CENTER_NAME":"EARTH","REF_FRAME":"TEME","MEAN_MOTION_DDOT":"0.0000000000000","SITE":"AFETR","PERIAPSIS":"546.380","ELEMENT_SET_NO":"999","BSTAR":"0.00190770000000","TIME_SYSTEM":"UTC","COUNTRY_CODE":"US","ECCENTRICITY":"0.00011080","REV_AT_EPOCH":"10241","INCLINATION":"53.0505","MEAN_MOTION":"15.06421705","EPHEMERIS_TYPE":"0","APOAPSIS":"547.914","DECAY_DATE":null,"CLASSIFICATION_TYPE":"U","PERIOD":"95.591","MEAN_ANOMALY":"283.9633","LAUNCH_DATE":"2021-05-26","TLE_LINE1":"1 48666U 21044AE  23093.69775663  .00028265  00000-0  19077-2 0  9996","OBJECT_NAME":"STARLINK-2666","MEAN_ELEMENT_THEORY":"SGP4","RA_OF_ASC_NODE":"239.9607","OBJECT_ID":"2021-044AE","NORAD_CAT_ID":"48666","ARG_OF_PERICENTER":"76.1479","FILE":"3879321","GP_ID":"229423789","MEAN_MOTION_DOT":"0.00028265","EPOCH":"2023-04-03T16:44:46.172832","RCS_SIZE":"LARGE"},{"RCS_SIZE":"LARGE","ARG_OF_PERICENTER":"71.3865","FILE":"3879321","GP_ID":"229422543","MEAN_MOTION_DOT":"0.00027164","EPOCH":"2023-04-03T16:02:14.055072","NORAD_CAT_ID":"48667","MEAN_ELEMENT_THEORY":"SGP4","RA_OF_ASC_NODE":"239.6223","OBJECT_ID":"2021-044AF","MEAN_ANOMALY":"288.7254","LAUNCH_DATE":"2021-05-26","TLE_LINE1":"1 48667U 21044AF  23093.66821823  .00027164  00000-0  18343-2 0  9996","OBJECT_NAME":"STARLINK-2735","PERIOD":"95.591","CLASSIFICATION_TYPE":"U","MEAN_MOTION":"15.06424600","EPHEMERIS_TYPE":"0","APOAPSIS":"547.970","DECAY_DATE":null,"REV_AT_EPOCH":"10242","INCLINATION":"53.0523","ECCENTRICITY":"0.00012010","COUNTRY_CODE":"US","BSTAR":"0.00183430000000","TIME_SYSTEM":"UTC","PERIAPSIS":"546.306","ELEMENT_SET_NO":"999","REF_FRAME":"TEME","MEAN_MOTION_DDOT":"0.0000000000000","SITE":"AFETR","TLE_LINE2":"2 48667  53.0523 239.6223 0001201  71.3865 288.7254 15.06424600102425","OBJECT_TYPE":"PAYLOAD","SEMIMAJOR_AXIS":"6925.273","CENTER_NAME":"EARTH"},{"PERIAPSIS":"546.374","ELEMENT_SET_NO":"999","REF_FRAME":"TEME","MEAN_MOTION_DDOT":"0.0000000000000","SITE":"AFETR","OBJECT_TYPE":"PAYLOAD","TLE_LINE2":"2 48668  53.0523 242.0195 0001141  78.1187 281.9930 15.06415990102346","SEMIMAJOR_AXIS":"6925.300","CENTER_NAME":"EARTH","REV_AT_EPOCH":"10234","INCLINATION":"53.0523","ECCENTRICITY":"0.00011410","COUNTRY_CODE":"US","BSTAR":"0.00216200000000","TIME_SYSTEM":"UTC","MEAN_ELEMENT_THEORY":"SGP4","RA_OF_ASC_NODE":"242.0195","OBJECT_ID":"2021-044AG","LAUNCH_DATE":"2021-05-26","MEAN_ANOMALY":"281.9930","TLE_LINE1":"1 48668U 21044AG  23093.13376209  .00032082  00000-0  21620-2 0  9999","OBJECT_NAME":"STARLINK-2738","CLASSIFICATION_TYPE":"U","PERIOD":"95.591","EPHEMERIS_TYPE":"0","MEAN_MOTION":"15.06415990","APOAPSIS":"547.955","DECAY_DATE":null,"RCS_SIZE":"LARGE","FILE":"3879059","ARG_OF_PERICENTER":"78.1187","GP_ID":"229390415","MEAN_MOTION_DOT":"0.00032082","EPOCH":"2023-04-03T03:12:37.044576","NORAD_CAT_ID":"48668"},{"EPHEMERIS_TYPE":"0","MEAN_MOTION":"15.06430510","APOAPSIS":"547.961","DECAY_DATE":null,"CLASSIFICATION_TYPE":"U","PERIOD":"95.590","MEAN_ANOMALY":"278.5255","LAUNCH_DATE":"2021-05-26","TLE_LINE1":"1 48669U 21044AH  23093.46179744  .00028186  00000-0  19020-2 0  9992","OBJECT_NAME":"STARLINK-2707","MEAN_ELEMENT_THEORY":"SGP4","RA_OF_ASC_NODE":"240.5470","OBJECT_ID":"2021-044AH","NORAD_CAT_ID":"48669","ARG_OF_PERICENTER":"81.5872","FILE":"3879059","GP_ID":"229390659","MEAN_MOTION_DOT":"0.00028186","EPOCH":"2023-04-03T11:04:59.298816","RCS_SIZE":"LARGE","SEMIMAJOR_AXIS":"6925.255","TLE_LINE2":"2 48669  53.0534 240.5470 0001214  81.5872 278.5255 15.06430510102389","OBJECT_TYPE":"PAYLOAD","CENTER_NAME":"EARTH","REF_FRAME":"TEME","MEAN_MOTION_DDOT":"0.0000000000000","SITE":"AFETR","PERIAPSIS":"546.279","ELEMENT_SET_NO":"999","BSTAR":"0.00190200000000","TIME_SYSTEM":"UTC","COUNTRY_CODE":"US","ECCENTRICITY":"0.00012140","REV_AT_EPOCH":"10238","INCLINATION":"53.0534"},{"DECAY_DATE":null,"EPHEMERIS_TYPE":"0","MEAN_MOTION":"15.06399278","APOAPSIS":"548.073","CLASSIFICATION_TYPE":"U","PERIOD":"95.592","TLE_LINE1":"1 48670U 21044AJ  23093.45812148  .00023004  00000-0  15582-2 0  9998","OBJECT_NAME":"STARLINK-2763","MEAN_ANOMALY":"290.0565","LAUNCH_DATE":"2021-05-26","RA_OF_ASC_NODE":"240.5635","OBJECT_ID":"2021-044AJ","MEAN_ELEMENT_THEORY":"SGP4","NORAD_CAT_ID":"48670","MEAN_MOTION_DOT":"0.00023004","EPOCH":"2023-04-03T10:59:41.695872","FILE":"3879059","ARG_OF_PERICENTER":"70.0557","GP_ID":"229389901","RCS_SIZE":"LARGE","CENTER_NAME":"EARTH","OBJECT_TYPE":"PAYLOAD","TLE_LINE2":"2 48670  53.0538 240.5635 0001238  70.0557 290.0565 15.06399278102385","SEMIMAJOR_AXIS":"6925.351","MEAN_MOTION_DDOT":"0.0000000000000","SITE":"AFETR","REF_FRAME":"TEME","ELEMENT_SET_NO":"999","PERIAPSIS":"546.358","TIME_SYSTEM":"UTC","BSTAR":"0.00155820000000","COUNTRY_CODE":"US","ECCENTRICITY":"0.00012380","INCLINATION":"53.0538","REV_AT_EPOCH":"10238"},{"NORAD_CAT_ID":"48671","EPOCH":"2023-04-03T10:54:18.277344","MEAN_MOTION_DOT":"0.00029013","GP_ID":"229390151","ARG_OF_PERICENTER":"48.0729","FILE":"3879059","RCS_SIZE":"LARGE","DECAY_DATE":null,"APOAPSIS":"547.747","EPHEMERIS_TYPE":"0","MEAN_MOTION":"15.06461556","CLASSIFICATION_TYPE":"U","PERIOD":"95.588","OBJECT_NAME":"STARLINK-2745","TLE_LINE1":"1 48671U 21044AK  23093.45437821  .00029013  00000-0  19554-2 0  9999","MEAN_ANOMALY":"312.0348","LAUNCH_DATE":"2021-05-26","OBJECT_ID":"2021-044AK","RA_OF_ASC_NODE":"240.5806","MEAN_ELEMENT_THEORY":"SGP4","TIME_SYSTEM":"UTC","BSTAR":"0.00195540000000","COUNTRY_CODE":"US","ECCENTRICITY":"0.00010430","INCLINATION":"53.0514","REV_AT_EPOCH":"10238","CENTER_NAME":"EARTH","TLE_LINE2":"2 48671  53.0514 240.5806 0001043  48.0729 312.0348 15.06461556102383","OBJECT_TYPE":"PAYLOAD","SEMIMAJOR_AXIS":"6925.160","SITE":"AFETR","MEAN_MOTION_DDOT":"0.0000000000000","REF_FRAME":"TEME","ELEMENT_SET_NO":"999","PERIAPSIS":"546.303"},{"RCS_SIZE":"LARGE","ARG_OF_PERICENTER":"90.9577","FILE":"3879321","GP_ID":"229422794","MEAN_MOTION_DOT":"0.00029059","EPOCH":"2023-04-03T18:46:39.152640","NORAD_CAT_ID":"48672","MEAN_ELEMENT_THEORY":"SGP4","RA_OF_ASC_NODE":"239.1030","OBJECT_ID":"2021-044AL","MEAN_ANOMALY":"269.1547","LAUNCH_DATE":"2021-05-26","TLE_LINE1":"1 48672U 21044AL  23093.78239760  .00029059  00000-0  19558-2 0  9992","OBJECT_NAME":"STARLINK-2705","PERIOD":"95.585","CLASSIFICATION_TYPE":"U","MEAN_MOTION":"15.06512232","EPHEMERIS_TYPE":"0","APOAPSIS":"547.685","DECAY_DATE":null,"REV_AT_EPOCH":"10243","INCLINATION":"53.0533","ECCENTRICITY":"0.00011770","COUNTRY_CODE":"US","BSTAR":"0.00195580000000","TIME_SYSTEM":"UTC","PERIAPSIS":"546.055","ELEMENT_SET_NO":"999","REF_FRAME":"TEME","MEAN_MOTION_DDOT":"0.0000000000000","SITE":"AFETR","TLE_LINE2":"2 48672  53.0533 239.1030 0001177  90.9577 269.1547 15.06512232102430","OBJECT_TYPE":"PAYLOAD","SEMIMAJOR_AXIS":"6925.005","CENTER_NAME":"EARTH"},{"NORAD_CAT_ID":"48673","EPOCH":"2023-04-03T18:41:26.868480","MEAN_MOTION_DOT":"0.00030567","GP_ID":"229423045","ARG_OF_PERICENTER":"67.8155","FILE":"3879321","RCS_SIZE":"LARGE","DECAY_DATE":null,"APOAPSIS":"547.655","EPHEMERIS_TYPE":"0","MEAN_MOTION":"15.06448868","PERIOD":"95.589","CLASSIFICATION_TYPE":"U","OBJECT_NAME":"STARLINK-2711","TLE_LINE1":"1 48673U 21044AM  23093.77878320  .00030567  00000-0  20594-2 0  9991","MEAN_ANOMALY":"292.2924","LAUNCH_DATE":"2021-05-26","OBJECT_ID":"2021-044AM","RA_OF_ASC_NODE":"239.1222","MEAN_ELEMENT_THEORY":"SGP4","TIME_SYSTEM":"UTC","BSTAR":"0.00205940000000","COUNTRY_CODE":"US","ECCENTRICITY":"0.00008530","INCLINATION":"53.0539","REV_AT_EPOCH":"10243","CENTER_NAME":"EARTH","TLE_LINE2":"2 48673  53.0539 239.1222 0000853  67.8155 292.2924 15.06448868102434","OBJECT_TYPE":"PAYLOAD","SEMIMAJOR_AXIS":"6925.199","SITE":"AFETR","MEAN_MOTION_DDOT":"0.0000000000000","REF_FRAME":"TEME","ELEMENT_SET_NO":"999","PERIAPSIS":"546.473"},{"CENTER_NAME":"EARTH","OBJECT_TYPE":"PAYLOAD","TLE_LINE2":"2 48674  53.0510 239.1346 0001288  67.8616 292.2509 15.06461520102435","SEMIMAJOR_AXIS":"6925.160","SITE":"AFETR","MEAN_MOTION_DDOT":"0.0000000000000","REF_FRAME":"TEME","ELEMENT_SET_NO":"999","PERIAPSIS":"546.133","TIME_SYSTEM":"UTC","BSTAR":"0.00223670000000","COUNTRY_CODE":"US","ECCENTRICITY":"0.00012880","INCLINATION":"53.0510","REV_AT_EPOCH":"10243","DECAY_DATE":null,"APOAPSIS":"547.917","EPHEMERIS_TYPE":"0","MEAN_MOTION":"15.06461520","PERIOD":"95.588","CLASSIFICATION_TYPE":"U","OBJECT_NAME":"STARLINK-2712","TLE_LINE1":"1 48674U 21044AN  23093.77413598  .00033247  00000-0  22367-2 0  9992","MEAN_ANOMALY":"292.2509","LAUNCH_DATE":"2021-05-26","OBJECT_ID":"2021-044AN","RA_OF_ASC_NODE":"239.1346","MEAN_ELEMENT_THEORY":"SGP4","NORAD_CAT_ID":"48674","EPOCH":"2023-04-03T18:34:45.348672","MEAN_MOTION_DOT":"0.00033247","GP_ID":"229423790","FILE":"3879321","ARG_OF_PERICENTER":"67.8616","RCS_SIZE":"LARGE"},{"OBJECT_NAME":"STARLINK-2737","TLE_LINE1":"1 48675U 21044AP  23093.77141415  .00033517  00000-0  22566-2 0  9990","MEAN_ANOMALY":"296.4096","LAUNCH_DATE":"2021-05-26","OBJECT_ID":"2021-044AP","RA_OF_ASC_NODE":"239.1541","MEAN_ELEMENT_THEORY":"SGP4","DECAY_DATE":null,"APOAPSIS":"547.953","MEAN_MOTION":"15.06429272","EPHEMERIS_TYPE":"0","CLASSIFICATION_TYPE":"U","PERIOD":"95.590","EPOCH":"2023-04-03T18:30:50.182560","MEAN_MOTION_DOT":"0.00033517","GP_ID":"229422544","FILE":"3879321","ARG_OF_PERICENTER":"63.7016","RCS_SIZE":"LARGE","NORAD_CAT_ID":"48675","SITE":"AFETR","MEAN_MOTION_DDOT":"0.0000000000000","REF_FRAME":"TEME","ELEMENT_SET_NO":"999","PERIAPSIS":"546.294","CENTER_NAME":"EARTH","SEMIMAJOR_AXIS":"6925.259","TLE_LINE2":"2 48675  53.0534 239.1541 0001198  63.7016 296.4096 15.06429272102433","OBJECT_TYPE":"PAYLOAD","ECCENTRICITY":"0.00011980","INCLINATION":"53.0534","REV_AT_EPOCH":"10243","TIME_SYSTEM":"UTC","BSTAR":"0.00225660000000","COUNTRY_CODE":"US"}];
